[{"OBJECT_NAME":"STARLINK-3505","OBJECT_ID":"2022-016AN","EPOCH":"2026-03-09T23:12:12.822048","MEAN_MOTION":15.0883057,"ECCENTRICITY":0.00011272,"INCLINATION":53.218,"RA_OF_ASC_NODE":307.8876,"ARG_OF_PERICENTER":80.6377,"MEAN_ANOMALY":279.4742,"EPHEMERIS_TYPE":0,"CLASSIFICATION_TYPE":"U","NORAD_CAT_ID":51750,"ELEMENT_SET_NO":999,"REV_AT_EPOCH":22374,"BSTAR":3.6530284e-5,"MEAN_MOTION_DOT":2.93e-6,"MEAN_MOTION_DDOT":0},{"OBJECT_NAME":"COSMOS 2058","OBJECT_ID":"1990-010A","EPOCH":"2026-03-09T23:30:01.891584","MEAN_MOTION":15.11324867,"ECCENTRICITY":0.00093159,"INCLINATION":82.4669,"RA_OF_ASC_NODE":47.1427,"ARG_OF_PERICENTER":343.3032,"MEAN_ANOMALY":16.789,"EPHEMERIS_TYPE":0,"CLASSIFICATION_TYPE":"U","NORAD_CAT_ID":20465,"ELEMENT_SET_NO":999,"REV_AT_EPOCH":94228,"BSTAR":0.00029943939,"MEAN_MOTION_DOT":5.077e-5,"MEAN_MOTION_DDOT":0}]
